ONEWEB-0414             
1 50491U 21132Y   25018.57614275  .00000029  00000+0  40086-4 0  9993
2 50491  87.9078  77.8181 0001583  95.8788 264.2525 13.18683587153807
ONEWEB-0417             
1 50492U 21132Z   25018.58406241  .00000060  00000+0  11871-3 0  9991
2 50492  87.9084  77.8344 0001935  94.1236 266.0117 13.18684882153780
ONEWEB-0418             
1 50493U 21132AA  25018.44164756  .00000051  00000+0  95804-4 0  9998
2 50493  87.9080  77.8577 0002042  89.0610 271.0756 13.18687659153829
ONEWEB-0419             
1 50494U 21132AB  25018.53503900  .00000053  00000+0  10079-3 0  9999
2 50494  87.9079  77.8487 0002191  98.9040 261.2340 13.18689084153755
ONEWEB-0420             
1 50495U 21132AC  25018.57772991  .00000048  00000+0  89441-4 0  9996
2 50495  87.9076  77.8487 0001745 109.2807 250.8514 13.18683485153750
ONEWEB-0421             
1 50496U 21132AD  25018.57141240  .00000056  00000+0  10921-3 0  9999
2 50496  87.9085  77.8323 0001506  97.0786 263.0517 13.18684399153793
ONEWEB-0424             
1 50497U 21132AE  25018.53029878  .00000029  00000+0  40446-4 0  9994
2 50497  87.9078  77.8364 0002358 100.9705 259.1693 13.18688248153813
ONEWEB-0426             
1 50498U 21132AF  25018.56825350  .00000162  00000+0  37748-3 0  9995
2 50498  87.9045  77.8360 0002518  79.6610 280.4806 13.18688670153765
